[{"OBJECT_NAME":"STARLINK-4373","OBJECT_ID":"2022-084AG","EPOCH":"2026-03-09T18:21:34.706592","MEAN_MOTION":15.05647229,"ECCENTRICITY":0.00013425,"INCLINATION":97.6033,"RA_OF_ASC_NODE":131.2693,"ARG_OF_PERICENTER":153.0366,"MEAN_ANOMALY":207.0931,"EPHEMERIS_TYPE":0,"CLASSIFICATION_TYPE":"U","NORAD_CAT_ID":53219,"ELEMENT_SET_NO":999,"REV_AT_EPOCH":19939,"BSTAR":-1.803663e-6,"MEAN_MOTION_DOT":-8.7e-7,"MEAN_MOTION_DDOT":0},{"OBJECT_NAME":"FENGYUN 1C DEB","OBJECT_ID":"1999-025CJB","EPOCH":"2026-03-04T10:30:16.287264","MEAN_MOTION":14.84272597,"ECCENTRICITY":0.00915644,"INCLINATION":98.0869,"RA_OF_ASC_NODE":145.0566,"ARG_OF_PERICENTER":112.3308,"MEAN_ANOMALY":248.7643,"EPHEMERIS_TYPE":0,"CLASSIFICATION_TYPE":"U","NORAD_CAT_ID":31837,"ELEMENT_SET_NO":999,"REV_AT_EPOCH":99570,"BSTAR":0.0020173845,"MEAN_MOTION_DOT":0.00018196,"MEAN_MOTION_DDOT":0}]
